ORBCOMM FM105           
1 41181U 15081C   26086.92041659  .00000216  00000+0  10511-3 0  9997
2 41181  47.0023 328.3464 0001412 167.8142 192.2773 14.45508562541797
ORBCOMM FM110           
1 41182U 15081D   26087.83541983  .00000862  00000+0  21902-3 0  9997
2 41182  47.0037  21.3358 0002500  49.1746 310.9357 14.58768487545896
ORBCOMM FM118           
1 41183U 15081E   26087.18513910  .00000853  00000+0  21716-3 0  9998
2 41183  47.0058  24.7293 0003149   6.1704 353.9220 14.58763996545900
ORBCOMM FM112           
1 41184U 15081F   26087.59898054  .00000661  00000+0  17637-3 0  9993
2 41184  46.9988 291.2659 0002027 203.0648 157.0147 14.58768718547187
ORBCOMM FM113           
1 41185U 15081G   26087.85020300  .00000556  00000+0  15414-3 0  9998
2 41185  47.0004 290.4494 0001756 214.6435 145.4336 14.58762717547204
ORBCOMM FM115           
1 41186U 15081H   26087.79931963  .00000598  00000+0  14922-3 0  9997
2 41186  46.9973 125.2630 0001921 282.5649  77.5024 14.63155885549445
ORBCOMM FM108           
1 41187U 15081J   26087.74448104  .00000687  00000+0  18185-3 0  9997
2 41187  47.0047 202.4964 0003105 201.2019 158.8739 14.58769882548338
ORBCOMM FM117           
1 41188U 15081K   26087.70985428  .00000828  00000+0  21172-3 0  9996
2 41188  47.0008 201.3189 0003585 205.3094 154.7617 14.58766807548371
ORBCOMM FM116           
1 41189U 15081L   26087.82767840  .00000655  00000+0  17508-3 0  9992
2 41189  47.0020 290.5495 0001308  45.4223 314.6769 14.58766208547205
